OBJECT_NAME,OBJECT_ID,EPOCH,MEAN_MOTION,ECCENTRICITY,INCLINATION,RA_OF_ASC_NODE,ARG_OF_PERICENTER,MEAN_ANOMALY,EPHEMERIS_TYPE,CLASSIFICATION_TYPE,NORAD_CAT_ID,ELEMENT_SET_NO,REV_AT_EPOCH,BSTAR,MEAN_MOTION_DOT,MEAN_MOTION_DDOT
COSMO-SKYMED 1,2007-023A,2026-06-18T19:20:33.001728,14.97106365,.0001419,97.8848,1.6751,98.3010,261.8372,0,U,31598,999,3003,.19959E-3,.2243E-4,0
COSMOS 2428,2007-029A,2026-06-18T18:31:40.362816,14.12927897,.0007128,70.9369,351.1500,131.9450,228.2280,0,U,31792,999,97837,-.30808E-4,-.105E-5,0
SL-16 R/B,2007-029B,2026-06-18T19:32:45.823200,14.14855495,.000236,70.9770,319.8072,262.4913,200.2367,0,U,31793,999,97967,.44448E-4,.38E-6,0
KORONAS-FOTON,2009-003A,2026-06-18T10:30:39.697344,15.45741559,.0011811,82.4288,170.9548,143.5150,216.6906,0,U,33504,999,96129,.167E-3,.8132E-4,0
CZ-2C R/B,2011-030B,2026-06-18T19:07:20.178048,14.81474828,.0052933,97.8655,125.1538,22.8132,36.8168,0,U,37731,999,80506,.132E-3,.1004E-4,0
H-2A R/B,2012-025E,2026-06-18T16:41:36.955104,14.95727372,.0043523,98.4833,144.9656,344.3359,15.6510,0,U,38341,999,76331,.1845E-3,.2023E-4,0
SHIJIAN-16 (SJ-16),2013-057A,2026-06-18T20:21:11.734272,14.92605516,.0016767,74.9727,353.5370,226.8950,133.0837,0,U,39358,999,68659,.1376E-4,.112E-5,0
SL-4 R/B,2014-021B,2026-06-18T19:31:43.779360,15.41982454,.0091174,51.6039,202.8025,111.8778,249.1933,0,U,39679,999,67186,.16179E-3,.7671E-4,0
ALOS-2,2014-029A,2026-06-18T19:55:11.294976,14.79473749,.0001661,97.9224,266.9699,91.0596,269.0805,0,U,39766,999,65182,.17207E-3,.1234E-4,0
YAOGAN-29,2015-069A,2026-06-18T20:44:53.899008,14.83086200,.000257,98.0021,198.5003,52.1407,308.0038,0,U,41038,999,57087,.98692E-5,.26E-6,0
ASTRO-H (HITOMI),2016-012A,2026-06-18T19:38:31.576992,15.10516660,.00098,30.9998,63.6518,269.8871,90.0644,0,U,41337,999,56753,.11749E-3,.2082E-4,0
HXMT (HUIYAN),2017-034A,2026-06-18T20:16:12.227808,15.18484769,.003079,43.0125,173.8119,157.8655,202.3530,0,U,42758,999,49791,.11129E-3,.2117E-4,0
SAOCOM 1A,2018-076A,2026-06-18T19:46:16.787424,14.82151844,.0001611,97.8880,356.5482,80.6035,279.5361,0,U,43641,999,41634,.11703E-3,.879E-5,0
H-2A R/B,2018-084L,2026-06-18T19:29:12.609600,15.45205060,.0023326,98.8567,49.0564,35.1554,325.1223,0,U,43682,999,42137,.32985E-3,.15714E-3,0
SAOCOM 1B,2020-059A,2026-06-18T20:31:08.688288,14.82146245,.0001588,97.8882,355.6737,82.7697,277.3696,0,U,46265,999,31373,.83956E-5,.15E-6,0
CSS (TIANHE),2021-035A,2026-06-18T19:58:55.879680,15.60871130,.0007368,41.4697,311.9880,91.6871,268.4812,0,U,48274,999,29342,.20869E-3,.17666E-3,0
COSMOS 2550,2021-056A,2026-06-17T22:29:15.459936,15.33847751,.00083421,67.1435,97.6381,268.6108,91.4090,0,U,48865,999,27883,.21058896E-3,.6747E-4,0
CZ-2C R/B,2022-058K,2026-06-18T07:54:48.898368,15.61926706,.0032461,50.1842,157.5724,272.7164,87.0094,0,U,52794,999,22582,.35493E-3,.31967E-3,0
CZ-2C R/B,2022-132E,2026-06-18T17:51:45.908640,15.71645913,.0015887,97.2901,176.8377,79.3792,280.9259,0,U,54039,999,20619,.39719E-3,.51506E-3,0
GSLV R/B,2022-138AN,2026-06-18T15:43:07.794048,14.97263486,.0023101,87.3809,132.4915,138.7263,221.5721,0,U,54149,999,19903,.17236E-3,.2035E-4,0
XRISM,2023-137A,2026-06-18T18:35:19.205376,15.12478761,.0007937,31.0032,349.3195,339.5471,20.4850,0,U,57800,999,15310,.22354E-3,.4086E-4,0
ACS3,2024-077B,2026-06-18T18:49:45.835392,13.94157125,.0078734,97.1684,88.2166,62.3549,298.5582,0,U,59588,999,10826,.30373E-1,.41507E-3,0
CZ-8A R/B,2025-231K,2026-06-18T20:51:00.679104,14.30155295,.0116488,50.0055,32.1619,229.9252,129.1404,0,U,66004,999,3518,.51546E-4,-.19E-6,0
SZ-21 MODULE,2025-246C,2026-06-18T10:04:01.553088,15.76496050,.0006546,41.4747,299.6525,354.9385,5.1392,0,U,66515,999,3393,.23745E-3,.38742E-3,0
